0 ARIANE 5 DEB (SYLDA)
1 35758U 09044D   13281.98232179  .00018095  00000-0  50284-2 0   312
2 35758 002.4090 095.2819 6621645 247.9304 027.8516 03.14028692 40196
0 ARIANE 5 DEB (SYLDA)
1 35758U 09044D   13282.28622743  .00019749  00000-0  55077-2 0   329
2 35758 002.4101 095.0691 6621391 248.3200 011.4027 03.14052804 40203
0 ARIANE 5 DEB (SYLDA)
1 35758U 09044D   13282.93413661  .00019319  00000-0  54301-2 0   331
2 35758 002.4110 094.6741 6621002 249.1185 023.8594 03.14085443 40227
0 ARIANE 5 DEB (SYLDA)
1 35758U 09044D   13283.88215414  .00020688  00000-0  58335-2 0   345
2 35758 002.4118 094.0935 6620716 250.2782 015.7545 03.14123955 40251
0 ARIANE 5 DEB (SYLDA)
1 35758U 09044D   13286.43274065  .00018448  00000-0  52400-2 0   355
2 35758 002.4149 092.5213 6619901 253.4004 020.2931 03.14231931 40336
0 ARIANE 5 DEB (SYLDA)
1 35758U 09044D   13288.07361703  .00021752  00000-0  62600-2 0   369
2 35758 002.4151 091.5390 6618671 255.4088 076.5050 03.14330410 40384
0 ARIANE 5 DEB (SYLDA)
1 35758U 09044D   13288.33504944  .00021871  00000-0  62547-2 0   377
2 35758 002.4151 091.3790 6618764 255.7274 012.3244 03.14340247 40392
0 ARIANE 5 DEB (SYLDA)
1 35758U 09044D   13289.02356769  .00020444  00000-0  59126-2 0   389
2 35758 002.4156 090.9586 6618104 256.5676 071.4062 03.14381157 40410
0 ARIANE 5 DEB (SYLDA)
1 35758U 09044D   13289.28973677  .00019150  00000-0  54972-2 0   397
2 35758 002.4162 090.8036 6618215 256.8850 012.6136 03.14395020 40420
0 ARIANE 5 DEB (SYLDA)
1 35758U 09044D   13290.88462541  .00020018  00000-0  58012-2 0   404
2 35758 002.4171 089.8265 6617295 258.8276 017.7711 03.14462208 40476
0 ARIANE 5 DEB (SYLDA)
1 35758U 09044D   13292.48145325  .00020122  00000-0  59051-2 0   411
2 35758 002.4180 088.8463 6616388 260.7766 025.5646 03.14523670 40524
0 ARIANE 5 DEB (SYLDA)
1 35758U 09044D   13293.43110662  .00020332  00000-0  59994-2 0   423
2 35758 002.4186 088.2612 6615929 261.9453 020.8600 03.14562623 40558
0 ARIANE 5 DEB (SYLDA)
1 35758U 09044D   13294.38182220  .00019234  00000-0  55966-2 0   432
2 35758 002.4267 087.6164 6616013 263.1680 017.4700 03.14610049 40586
0 ARIANE 5 DEB (SYLDA)
1 35758U 09044D   13295.33119388  .00020353  00000-0  60347-2 0   447
2 35758 002.4138 087.1403 6615183 264.2364 012.7211 03.14653746 40612
0 ARIANE 5 DEB (SYLDA)
1 35758U 09044D   13295.94128817  .00019542  00000-0  58189-2 0   451
2 35758 002.4150 086.7592 6614901 265.0011 343.7630 03.14681304 40630
